start=new Date('2023-04-14T00:00:00.000Z').valueOf();
sats=[{"ECCENTRICITY":"0.00013950","REF_FRAME":"TEME","APOAPSIS":"540.687","SEMIMAJOR_AXIS":"6917.857","GP_ID":"230026037","REV_AT_EPOCH":"4607","TIME_SYSTEM":"UTC","MEAN_ANOMALY":"276.1776","OBJECT_ID":"2022-062N","TLE_LINE2":"2 52842  53.2159 117.9077 0001395  83.9375 276.1776 15.08847667 46078","DECAY_DATE":null,"OBJECT_NAME":"STARLINK-4046","CLASSIFICATION_TYPE":"U","SITE":"AFETR","LAUNCH_DATE":"2022-06-17","NORAD_CAT_ID":"52842","EPOCH":"2023-04-13T12:27:10.379232","COUNTRY_CODE":"US","CENTER_NAME":"EARTH","RA_OF_ASC_NODE":"117.9077","ELEMENT_SET_NO":"999","MEAN_ELEMENT_THEORY":"SGP4","BSTAR":"0.00010385000000","PERIOD":"95.437","INCLINATION":"53.2159","MEAN_MOTION_DOT":"0.00001366","FILE":"3886925","OBJECT_TYPE":"PAYLOAD","EPHEMERIS_TYPE":"0","ARG_OF_PERICENTER":"83.9375","MEAN_MOTION_DDOT":"0.0000000000000","PERIAPSIS":"538.757","RCS_SIZE":"LARGE","TLE_LINE1":"1 52842U 22062N   23103.51887013  .00001366  00000-0  10385-3 0  9991","MEAN_MOTION":"15.08847667"},{"APOAPSIS":"540.700","REF_FRAME":"TEME","ECCENTRICITY":"0.00013680","DECAY_DATE":null,"TLE_LINE2":"2 52843  53.2169 118.3358 0001368  90.0630 270.0519 15.08837249 45577","OBJECT_ID":"2022-062P","TIME_SYSTEM":"UTC","MEAN_ANOMALY":"270.0519","SEMIMAJOR_AXIS":"6917.889","GP_ID":"230013818","REV_AT_EPOCH":"4557","OBJECT_NAME":"STARLINK-4188","EPOCH":"2023-04-13T10:08:01.513536","NORAD_CAT_ID":"52843","LAUNCH_DATE":"2022-06-17","SITE":"AFETR","CLASSIFICATION_TYPE":"U","MEAN_ELEMENT_THEORY":"SGP4","BSTAR":"0.00004023500000","RA_OF_ASC_NODE":"118.3358","ELEMENT_SET_NO":"999","COUNTRY_CODE":"US","CENTER_NAME":"EARTH","FILE":"3886564","OBJECT_TYPE":"PAYLOAD","INCLINATION":"53.2169","MEAN_MOTION_DOT":"0.00000352","PERIOD":"95.438","MEAN_MOTION_DDOT":"0.0000000000000","EPHEMERIS_TYPE":"0","ARG_OF_PERICENTER":"90.0630","PERIAPSIS":"538.807","MEAN_MOTION":"15.08837249","TLE_LINE1":"1 52843U 22062P   23103.42223974  .00000352  00000-0  40235-4 0  9994","RCS_SIZE":"LARGE"},{"CLASSIFICATION_TYPE":"U","SITE":"AFETR","LAUNCH_DATE":"2022-06-17","NORAD_CAT_ID":"52844","EPOCH":"2023-04-13T10:29:12.931008","OBJECT_NAME":"STARLINK-4208","SEMIMAJOR_AXIS":"6917.861","GP_ID":"230015070","REV_AT_EPOCH":"4557","TIME_SYSTEM":"UTC","MEAN_ANOMALY":"264.9922","TLE_LINE2":"2 52844  53.2150 118.2673 0001521  95.1244 264.9922 15.08846419 45574","OBJECT_ID":"2022-062Q","DECAY_DATE":null,"ECCENTRICITY":"0.00015210","REF_FRAME":"TEME","APOAPSIS":"540.778","PERIAPSIS":"538.674","MEAN_MOTION":"15.08846419","TLE_LINE1":"1 52844U 22062Q   23103.43695522  .00002428  00000-0  17054-3 0  9996","RCS_SIZE":"LARGE","EPHEMERIS_TYPE":"0","ARG_OF_PERICENTER":"95.1244","MEAN_MOTION_DDOT":"0.0000000000000","PERIOD":"95.437","INCLINATION":"53.2150","MEAN_MOTION_DOT":"0.00002428","FILE":"3886564","OBJECT_TYPE":"PAYLOAD","COUNTRY_CODE":"US","CENTER_NAME":"EARTH","RA_OF_ASC_NODE":"118.2673","ELEMENT_SET_NO":"999","MEAN_ELEMENT_THEORY":"SGP4","BSTAR":"0.00017054000000"},{"CLASSIFICATION_TYPE":"U","LAUNCH_DATE":"2022-06-17","SITE":"AFETR","NORAD_CAT_ID":"52845","EPOCH":"2023-04-13T10:13:20.013312","OBJECT_NAME":"STARLINK-4168","GP_ID":"230014818","REV_AT_EPOCH":"4557","SEMIMAJOR_AXIS":"6917.882","MEAN_ANOMALY":"267.3249","TIME_SYSTEM":"UTC","OBJECT_ID":"2022-062R","TLE_LINE2":"2 52845  53.2166 118.3815 0001402  92.7904 267.3249 15.08839533 45573","DECAY_DATE":null,"ECCENTRICITY":"0.00014020","REF_FRAME":"TEME","APOAPSIS":"540.717","TLE_LINE1":"1 52845U 22062R   23103.42592608  .00000214  00000-0  31542-4 0  9997","RCS_SIZE":"LARGE","MEAN_MOTION":"15.08839533","PERIAPSIS":"538.777","ARG_OF_PERICENTER":"92.7904","EPHEMERIS_TYPE":"0","MEAN_MOTION_DDOT":"0.0000000000000","PERIOD":"95.438","MEAN_MOTION_DOT":"0.00000214","INCLINATION":"53.2166","OBJECT_TYPE":"PAYLOAD","FILE":"3886564","CENTER_NAME":"EARTH","COUNTRY_CODE":"US","ELEMENT_SET_NO":"999","RA_OF_ASC_NODE":"118.3815","BSTAR":"0.00003154200000","MEAN_ELEMENT_THEORY":"SGP4"},{"MEAN_MOTION_DDOT":"0.0000000000000","EPHEMERIS_TYPE":"0","ARG_OF_PERICENTER":"97.4180","TLE_LINE1":"1 52846U 22062S   23103.36063464  .00002095  00000-0  14966-3 0  9993","RCS_SIZE":"LARGE","MEAN_MOTION":"15.08841989","PERIAPSIS":"538.876","BSTAR":"0.00014966000000","MEAN_ELEMENT_THEORY":"SGP4","ELEMENT_SET_NO":"999","RA_OF_ASC_NODE":"118.6207","CENTER_NAME":"EARTH","COUNTRY_CODE":"US","OBJECT_TYPE":"PAYLOAD","FILE":"3886564","MEAN_MOTION_DOT":"0.00002095","INCLINATION":"53.2152","PERIOD":"95.437","OBJECT_NAME":"STARLINK-4212","EPOCH":"2023-04-13T08:39:18.832896","NORAD_CAT_ID":"52846","SITE":"AFETR","LAUNCH_DATE":"2022-06-17","CLASSIFICATION_TYPE":"U","APOAPSIS":"540.603","REF_FRAME":"TEME","ECCENTRICITY":"0.00012480","DECAY_DATE":null,"OBJECT_ID":"2022-062S","TLE_LINE2":"2 52846  53.2152 118.6207 0001248  97.4180 262.6954 15.08841989 45561","MEAN_ANOMALY":"262.6954","TIME_SYSTEM":"UTC","REV_AT_EPOCH":"4556","GP_ID":"230013568","SEMIMAJOR_AXIS":"6917.874"},{"PERIAPSIS":"538.880","MEAN_MOTION":"15.08838054","TLE_LINE1":"1 52847U 22062T   23103.41488013  .00000364  00000-0  40938-4 0  9997","RCS_SIZE":"LARGE","EPHEMERIS_TYPE":"0","ARG_OF_PERICENTER":"105.4622","MEAN_MOTION_DDOT":"0.0000000000000","PERIOD":"95.438","INCLINATION":"53.2164","MEAN_MOTION_DOT":"0.00000364","FILE":"3886564","OBJECT_TYPE":"PAYLOAD","COUNTRY_CODE":"US","CENTER_NAME":"EARTH","RA_OF_ASC_NODE":"118.3641","ELEMENT_SET_NO":"999","MEAN_ELEMENT_THEORY":"SGP4","BSTAR":"0.00004093800000","CLASSIFICATION_TYPE":"U","SITE":"AFETR","LAUNCH_DATE":"2022-06-17","NORAD_CAT_ID":"52847","EPOCH":"2023-04-13T09:57:25.643232","OBJECT_NAME":"STARLINK-4206","SEMIMAJOR_AXIS":"6917.886","REV_AT_EPOCH":"4557","GP_ID":"230014319","TIME_SYSTEM":"UTC","MEAN_ANOMALY":"254.6509","TLE_LINE2":"2 52847  53.2164 118.3641 0001259 105.4622 254.6509 15.08838054 45574","OBJECT_ID":"2022-062T","DECAY_DATE":null,"ECCENTRICITY":"0.00012590","REF_FRAME":"TEME","APOAPSIS":"540.622"},{"ELEMENT_SET_NO":"999","RA_OF_ASC_NODE":"118.2832","CENTER_NAME":"EARTH","COUNTRY_CODE":"US","BSTAR":"0.00032166000000","MEAN_ELEMENT_THEORY":"SGP4","MEAN_MOTION_DOT":"0.00004835","INCLINATION":"53.2158","PERIOD":"95.438","OBJECT_TYPE":"PAYLOAD","FILE":"3886564","MEAN_MOTION_DDOT":"0.0000000000000","EPHEMERIS_TYPE":"0","ARG_OF_PERICENTER":"82.1734","TLE_LINE1":"1 52848U 22062U   23103.43327947  .00004835  00000-0  32166-3 0  9998","MEAN_MOTION":"15.08840102","RCS_SIZE":"LARGE","PERIAPSIS":"538.656","REF_FRAME":"TEME","ECCENTRICITY":"0.00015740","APOAPSIS":"540.834","MEAN_ANOMALY":"277.9437","TIME_SYSTEM":"UTC","REV_AT_EPOCH":"4557","GP_ID":"230014570","SEMIMAJOR_AXIS":"6917.880","DECAY_DATE":null,"TLE_LINE2":"2 52848  53.2158 118.2832 0001574  82.1734 277.9437 15.08840102 45579","OBJECT_ID":"2022-062U","OBJECT_NAME":"STARLINK-4202","SITE":"AFETR","LAUNCH_DATE":"2022-06-17","CLASSIFICATION_TYPE":"U","EPOCH":"2023-04-13T10:23:55.346208","NORAD_CAT_ID":"52848"},{"OBJECT_ID":"2022-062V","TLE_LINE2":"2 52849  53.2158 108.9896 0001382  89.3535 270.7616 15.08839978 45682","DECAY_DATE":null,"SEMIMAJOR_AXIS":"6917.880","GP_ID":"230015318","REV_AT_EPOCH":"4568","TIME_SYSTEM":"UTC","MEAN_ANOMALY":"270.7616","APOAPSIS":"540.702","ECCENTRICITY":"0.00013820","REF_FRAME":"TEME","NORAD_CAT_ID":"52849","EPOCH":"2023-04-13T06:37:23.010528","CLASSIFICATION_TYPE":"U","LAUNCH_DATE":"2022-06-17","SITE":"AFETR","OBJECT_NAME":"STARLINK-4197","FILE":"3886564","OBJECT_TYPE":"PAYLOAD","PERIOD":"95.438","INCLINATION":"53.2158","MEAN_MOTION_DOT":"0.00000204","MEAN_ELEMENT_THEORY":"SGP4","BSTAR":"0.00003090200000","COUNTRY_CODE":"US","CENTER_NAME":"EARTH","RA_OF_ASC_NODE":"108.9896","ELEMENT_SET_NO":"999","PERIAPSIS":"538.789","MEAN_MOTION":"15.08839978","TLE_LINE1":"1 52849U 22062V   23103.27596077  .00000204  00000-0  30902-4 0  9996","RCS_SIZE":"LARGE","ARG_OF_PERICENTER":"89.3535","EPHEMERIS_TYPE":"0","MEAN_MOTION_DDOT":"0.0000000000000"},{"OBJECT_NAME":"STARLINK-4187","NORAD_CAT_ID":"52850","EPOCH":"2023-04-13T17:59:39.219072","CLASSIFICATION_TYPE":"U","SITE":"AFETR","LAUNCH_DATE":"2022-06-17","APOAPSIS":"540.671","ECCENTRICITY":"0.00013310","REF_FRAME":"TEME","TLE_LINE2":"2 52850  53.2158 116.8630 0001331  95.7300 264.3844 15.08838293 46113","OBJECT_ID":"2022-062W","DECAY_DATE":null,"REV_AT_EPOCH":"4611","GP_ID":"230026093","SEMIMAJOR_AXIS":"6917.886","MEAN_ANOMALY":"264.3844","TIME_SYSTEM":"UTC","EPHEMERIS_TYPE":"0","ARG_OF_PERICENTER":"95.7300","MEAN_MOTION_DDOT":"0.0000000000000","RCS_SIZE":"LARGE","TLE_LINE1":"1 52850U 22062W   23103.74975948  .00000217  00000-0  31755-4 0  9999","MEAN_MOTION":"15.08838293","PERIAPSIS":"538.830","BSTAR":"0.00003175500000","MEAN_ELEMENT_THEORY":"SGP4","CENTER_NAME":"EARTH","COUNTRY_CODE":"US","ELEMENT_SET_NO":"999","RA_OF_ASC_NODE":"116.8630","OBJECT_TYPE":"PAYLOAD","FILE":"3886928","PERIOD":"95.438","MEAN_MOTION_DOT":"0.00000217","INCLINATION":"53.2158"},{"APOAPSIS":"540.594","REF_FRAME":"TEME","ECCENTRICITY":"0.00012210","DECAY_DATE":null,"OBJECT_ID":"2022-062X","TLE_LINE2":"2 52851  53.2159 108.4125 0001221  90.4902 269.6230 15.08838697 45708","TIME_SYSTEM":"UTC","MEAN_ANOMALY":"269.6230","SEMIMAJOR_AXIS":"6917.884","GP_ID":"230013819","REV_AT_EPOCH":"4570","OBJECT_NAME":"STARLINK-3809","EPOCH":"2023-04-13T09:42:51.416928","NORAD_CAT_ID":"52851","LAUNCH_DATE":"2022-06-17","SITE":"AFETR","CLASSIFICATION_TYPE":"U","MEAN_ELEMENT_THEORY":"SGP4","BSTAR":"0.00006517900000","RA_OF_ASC_NODE":"108.4125","ELEMENT_SET_NO":"999","COUNTRY_CODE":"US","CENTER_NAME":"EARTH","FILE":"3886564","OBJECT_TYPE":"PAYLOAD","INCLINATION":"53.2159","MEAN_MOTION_DOT":"0.00000750","PERIOD":"95.438","MEAN_MOTION_DDOT":"0.0000000000000","ARG_OF_PERICENTER":"90.4902","EPHEMERIS_TYPE":"0","PERIAPSIS":"538.905","RCS_SIZE":"LARGE","TLE_LINE1":"1 52851U 22062X   23103.40476177  .00000750  00000-0  65179-4 0  9992","MEAN_MOTION":"15.08838697"}];
